FENGYUN 1C DEB          
1 38159U 99025ERG 26064.95475144  .00000502  00000+0  34426-3 0  9996
2 38159  99.3092 323.6018 0057113 110.5018 250.2290 14.03601641842792
FENGYUN 1C DEB          
1 38163U 99025ERL 26063.32852087  .00001646  00000+0  10029-2 0  9998
2 38163  99.1196 105.4562 0075215  16.8687 343.4957 14.06151028256889
FENGYUN 1C DEB          
1 38166U 99025ERP 26065.24707655  .00009708  00000+0  35347-2 0  9991
2 38166  99.0747 177.1010 0057033 162.3286 197.9898 14.32447401649678
FENGYUN 1C DEB          
1 38169U 99025ERS 26065.18311397  .00016837  00000+0  25051-2 0  9993
2 38169  98.9847  53.1777 0028222 162.8427 197.3739 14.74748830624973
FENGYUN 1C DEB          
1 38173U 99025ERW 26056.53525984  .00002707  00000+0  78856-3 0  9999
2 38173  98.9970 325.2606 0159562 252.9610 105.4040 14.37956743617189
FENGYUN 1C DEB          
1 38492U 99025ESB 26061.41729102  .00005706  00000+0  34743-2 0  9992
2 38492  98.6077 132.8891 0225820 288.0060  69.6612 13.94641295571142
FENGYUN 1C DEB          
1 38493U 99025ESC 26065.09965455  .00001119  00000+0  80637-3 0  9992
2 38493  99.0921  24.0890 0427882  28.9730 333.4454 13.62412230576336
FENGYUN 1C DEB          
1 38494U 99025ESD 26065.07419682  .00005546  00000+0  19532-2 0  9990
2 38494  98.4387  14.1834 0379095 133.5854 229.7448 14.01767295 83214
FENGYUN 1C DEB          
1 38496U 99025ESF 26064.84906775  .00001335  00000+0  75467-3 0  9992
2 38496  98.7638  77.4554 0078652 130.6296 230.1750 14.10278287821920
FENGYUN 1C DEB          
1 38498U 99025ESH 26063.74098825  .00000857  00000+0  15324-2 0  9993
2 38498  99.6969  80.1029 0555941 245.5019 108.7160 12.96789029548066
FENGYUN 1C DEB          
1 38510U 99025ESV 26056.80508135  .00001147  00000+0  60390-3 0  9994
2 38510  98.6041  68.0164 0097186 296.0230  63.0961 14.13546892897300
FENGYUN 1C DEB          
1 38512U 99025ESX 26063.09301561  .00001216  00000+0  11057-2 0  9991
2 38512  98.3785 300.0203 0226110 246.5893 111.1338 13.74240236606875
FENGYUN 1C DEB          
1 38514U 99025ESZ 26063.84455108  .00006509  00000+0  22271-2 0  9993
2 38514  98.0484  90.8606 0266028 134.2095 228.1273 14.18502621891590
FENGYUN 1C DEB          
1 38516U 99025ETB 26062.75248614  .00000422  00000+0  15608-3 0  9991
2 38516  98.4527  49.8115 0109164 244.7623 114.2216 14.34139770860344
FENGYUN 1C DEB          
1 38519U 99025ETE 26062.15749397  .00001858  00000+0  14318-2 0  9992
2 38519  99.5415  44.6067 0168432 188.1814 171.6588 13.87885134858536
FENGYUN 1C DEB          
1 38717U 99025ETJ 26062.54203846  .00003252  00000+0  15100-2 0  9999
2 38717  99.1550  85.5754 0058084 124.5795  27.2141 14.20500102595730
