[{"OBJECT_NAME":"FENGYUN 1C DEB","OBJECT_ID":"1999-025ERG","EPOCH":"2026-03-05T22:54:50.524416","MEAN_MOTION":14.03601641,"ECCENTRICITY":0.00571135,"INCLINATION":99.3092,"RA_OF_ASC_NODE":323.6018,"ARG_OF_PERICENTER":110.5018,"MEAN_ANOMALY":250.229,"EPHEMERIS_TYPE":0,"CLASSIFICATION_TYPE":"U","NORAD_CAT_ID":38159,"ELEMENT_SET_NO":999,"REV_AT_EPOCH":84279,"BSTAR":0.00034425922,"MEAN_MOTION_DOT":5.02e-6,"MEAN_MOTION_DDOT":0},{"OBJECT_NAME":"FENGYUN 1C DEB","OBJECT_ID":"1999-025ERL","EPOCH":"2026-03-04T07:53:04.203168","MEAN_MOTION":14.06151028,"ECCENTRICITY":0.00752157,"INCLINATION":99.1196,"RA_OF_ASC_NODE":105.4562,"ARG_OF_PERICENTER":16.8687,"MEAN_ANOMALY":343.4957,"EPHEMERIS_TYPE":0,"CLASSIFICATION_TYPE":"U","NORAD_CAT_ID":38163,"ELEMENT_SET_NO":999,"REV_AT_EPOCH":25688,"BSTAR":0.0010028723,"MEAN_MOTION_DOT":1.646e-5,"MEAN_MOTION_DDOT":0},{"OBJECT_NAME":"FENGYUN 1C DEB","OBJECT_ID":"1999-025ERP","EPOCH":"2026-03-06T05:55:47.413920","MEAN_MOTION":14.32447401,"ECCENTRICITY":0.00570336,"INCLINATION":99.0747,"RA_OF_ASC_NODE":177.101,"ARG_OF_PERICENTER":162.3286,"MEAN_ANOMALY":197.9898,"EPHEMERIS_TYPE":0,"CLASSIFICATION_TYPE":"U","NORAD_CAT_ID":38166,"ELEMENT_SET_NO":999,"REV_AT_EPOCH":64967,"BSTAR":0.0035346679,"MEAN_MOTION_DOT":9.708e-5,"MEAN_MOTION_DDOT":0},{"OBJECT_NAME":"FENGYUN 1C DEB","OBJECT_ID":"1999-025ERS","EPOCH":"2026-03-06T04:23:41.047008","MEAN_MOTION":14.7474883,"ECCENTRICITY":0.00282228,"INCLINATION":98.9847,"RA_OF_ASC_NODE":53.1777,"ARG_OF_PERICENTER":162.8427,"MEAN_ANOMALY":197.3739,"EPHEMERIS_TYPE":0,"CLASSIFICATION_TYPE":"U","NORAD_CAT_ID":38169,"ELEMENT_SET_NO":999,"REV_AT_EPOCH":62497,"BSTAR":0.0025050637,"MEAN_MOTION_DOT":0.00016837,"MEAN_MOTION_DDOT":0},{"OBJECT_NAME":"FENGYUN 1C DEB","OBJECT_ID":"1999-025ERW","EPOCH":"2026-02-25T12:50:46.450176","MEAN_MOTION":14.37956743,"ECCENTRICITY":0.0159562,"INCLINATION":98.997,"RA_OF_ASC_NODE":325.2606,"ARG_OF_PERICENTER":252.961,"MEAN_ANOMALY":105.404,"EPHEMERIS_TYPE":0,"CLASSIFICATION_TYPE":"U","NORAD_CAT_ID":38173,"ELEMENT_SET_NO":999,"REV_AT_EPOCH":61718,"BSTAR":0.00078856,"MEAN_MOTION_DOT":2.707e-5,"MEAN_MOTION_DDOT":0},{"OBJECT_NAME":"FENGYUN 1C DEB","OBJECT_ID":"1999-025ESB","EPOCH":"2026-03-02T10:00:53.944128","MEAN_MOTION":13.94641295,"ECCENTRICITY":0.02258203,"INCLINATION":98.6077,"RA_OF_ASC_NODE":132.8891,"ARG_OF_PERICENTER":288.006,"MEAN_ANOMALY":69.6612,"EPHEMERIS_TYPE":0,"CLASSIFICATION_TYPE":"U","NORAD_CAT_ID":38492,"ELEMENT_SET_NO":999,"REV_AT_EPOCH":57114,"BSTAR":0.0034742976,"MEAN_MOTION_DOT":5.706e-5,"MEAN_MOTION_DDOT":0},{"OBJECT_NAME":"FENGYUN 1C DEB","OBJECT_ID":"1999-025ESC","EPOCH":"2026-03-06T02:23:30.153120","MEAN_MOTION":13.6241223,"ECCENTRICITY":0.04278825,"INCLINATION":99.0921,"RA_OF_ASC_NODE":24.089,"ARG_OF_PERICENTER":28.973,"MEAN_ANOMALY":333.4454,"EPHEMERIS_TYPE":0,"CLASSIFICATION_TYPE":"U","NORAD_CAT_ID":38493,"ELEMENT_SET_NO":999,"REV_AT_EPOCH":57633,"BSTAR":0.00080637115,"MEAN_MOTION_DOT":1.119e-5,"MEAN_MOTION_DDOT":0},{"OBJECT_NAME":"FENGYUN 1C DEB","OBJECT_ID":"1999-025ESD","EPOCH":"2026-03-06T01:46:50.605248","MEAN_MOTION":14.01767295,"ECCENTRICITY":0.03790959,"INCLINATION":98.4387,"RA_OF_ASC_NODE":14.1834,"ARG_OF_PERICENTER":133.5854,"MEAN_ANOMALY":229.7448,"EPHEMERIS_TYPE":0,"CLASSIFICATION_TYPE":"U","NORAD_CAT_ID":38494,"ELEMENT_SET_NO":999,"REV_AT_EPOCH":8321,"BSTAR":0.0019532245,"MEAN_MOTION_DOT":5.546e-5,"MEAN_MOTION_DDOT":0},{"OBJECT_NAME":"FENGYUN 1C DEB","OBJECT_ID":"1999-025ESF","EPOCH":"2026-03-05T20:22:39.453600","MEAN_MOTION":14.10278287,"ECCENTRICITY":0.00786526,"INCLINATION":98.7638,"RA_OF_ASC_NODE":77.4554,"ARG_OF_PERICENTER":130.6296,"MEAN_ANOMALY":230.175,"EPHEMERIS_TYPE":0,"CLASSIFICATION_TYPE":"U","NORAD_CAT_ID":38496,"ELEMENT_SET_NO":999,"REV_AT_EPOCH":82192,"BSTAR":0.00075466767,"MEAN_MOTION_DOT":1.335e-5,"MEAN_MOTION_DDOT":0},{"OBJECT_NAME":"FENGYUN 1C DEB","OBJECT_ID":"1999-025ESH","EPOCH":"2026-03-04T17:47:01.384800","MEAN_MOTION":12.96789029,"ECCENTRICITY":0.0555941,"INCLINATION":99.6969,"RA_OF_ASC_NODE":80.1029,"ARG_OF_PERICENTER":245.5019,"MEAN_ANOMALY":108.716,"EPHEMERIS_TYPE":0,"CLASSIFICATION_TYPE":"U","NORAD_CAT_ID":38498,"ELEMENT_SET_NO":999,"REV_AT_EPOCH":54806,"BSTAR":0.0015324234,"MEAN_MOTION_DOT":8.57e-6,"MEAN_MOTION_DDOT":0},{"OBJECT_NAME":"FENGYUN 1C DEB","OBJECT_ID":"1999-025ESV","EPOCH":"2026-02-25T19:19:19.028640","MEAN_MOTION":14.13546892,"ECCENTRICITY":0.0097186,"INCLINATION":98.6041,"RA_OF_ASC_NODE":68.0164,"ARG_OF_PERICENTER":296.023,"MEAN_ANOMALY":63.0961,"EPHEMERIS_TYPE":0,"CLASSIFICATION_TYPE":"U","NORAD_CAT_ID":38510,"ELEMENT_SET_NO":999,"REV_AT_EPOCH":89730,"BSTAR":0.00060389818,"MEAN_MOTION_DOT":1.147e-5,"MEAN_MOTION_DDOT":0},{"OBJECT_NAME":"FENGYUN 1C DEB","OBJECT_ID":"1999-025ESX","EPOCH":"2026-03-04T02:13:56.548704","MEAN_MOTION":13.74240236,"ECCENTRICITY":0.022611,"INCLINATION":98.3785,"RA_OF_ASC_NODE":300.0203,"ARG_OF_PERICENTER":246.5893,"MEAN_ANOMALY":111.1338,"EPHEMERIS_TYPE":0,"CLASSIFICATION_TYPE":"U","NORAD_CAT_ID":38512,"ELEMENT_SET_NO":999,"REV_AT_EPOCH":60687,"BSTAR":0.0011056786,"MEAN_MOTION_DOT":1.216e-5,"MEAN_MOTION_DDOT":0},{"OBJECT_NAME":"FENGYUN 1C DEB","OBJECT_ID":"1999-025ESZ","EPOCH":"2026-03-04T20:16:09.213312","MEAN_MOTION":14.18502621,"ECCENTRICITY":0.02660283,"INCLINATION":98.0484,"RA_OF_ASC_NODE":90.8606,"ARG_OF_PERICENTER":134.2095,"MEAN_ANOMALY":228.1273,"EPHEMERIS_TYPE":0,"CLASSIFICATION_TYPE":"U","NORAD_CAT_ID":38514,"ELEMENT_SET_NO":999,"REV_AT_EPOCH":89159,"BSTAR":0.0022271003,"MEAN_MOTION_DOT":6.509e-5,"MEAN_MOTION_DDOT":0},{"OBJECT_NAME":"FENGYUN 1C DEB","OBJECT_ID":"1999-025ETB","EPOCH":"2026-03-03T18:03:34.802496","MEAN_MOTION":14.3413977,"ECCENTRICITY":0.01091649,"INCLINATION":98.4527,"RA_OF_ASC_NODE":49.8115,"ARG_OF_PERICENTER":244.7623,"MEAN_ANOMALY":114.2216,"EPHEMERIS_TYPE":0,"CLASSIFICATION_TYPE":"U","NORAD_CAT_ID":38516,"ELEMENT_SET_NO":999,"REV_AT_EPOCH":86034,"BSTAR":0.00015607988,"MEAN_MOTION_DOT":4.22e-6,"MEAN_MOTION_DDOT":0},{"OBJECT_NAME":"FENGYUN 1C DEB","OBJECT_ID":"1999-025ETE","EPOCH":"2026-03-03T03:46:47.479008","MEAN_MOTION":13.87885134,"ECCENTRICITY":0.01684326,"INCLINATION":99.5415,"RA_OF_ASC_NODE":44.6067,"ARG_OF_PERICENTER":188.1814,"MEAN_ANOMALY":171.6588,"EPHEMERIS_TYPE":0,"CLASSIFICATION_TYPE":"U","NORAD_CAT_ID":38519,"ELEMENT_SET_NO":999,"REV_AT_EPOCH":85853,"BSTAR":0.0014318426,"MEAN_MOTION_DOT":1.858e-5,"MEAN_MOTION_DDOT":0},{"OBJECT_NAME":"FENGYUN 1C DEB","OBJECT_ID":"1999-025ETJ","EPOCH":"2026-03-03T13:00:32.122944","MEAN_MOTION":14.20500102,"ECCENTRICITY":0.0058084,"INCLINATION":99.155,"RA_OF_ASC_NODE":85.5754,"ARG_OF_PERICENTER":124.5795,"MEAN_ANOMALY":27.2141,"EPHEMERIS_TYPE":0,"CLASSIFICATION_TYPE":"U","NORAD_CAT_ID":38717,"ELEMENT_SET_NO":999,"REV_AT_EPOCH":59573,"BSTAR":0.00151,"MEAN_MOTION_DOT":3.252e-5,"MEAN_MOTION_DDOT":0}]
